OBJECT_NAME,OBJECT_ID,EPOCH,MEAN_MOTION,ECCENTRICITY,INCLINATION,RA_OF_ASC_NODE,ARG_OF_PERICENTER,MEAN_ANOMALY,EPHEMERIS_TYPE,CLASSIFICATION_TYPE,NORAD_CAT_ID,ELEMENT_SET_NO,REV_AT_EPOCH,BSTAR,MEAN_MOTION_DOT,MEAN_MOTION_DDOT
BEIDOU-2 IGSO-5 (C10),2011-073A,2026-06-08T19:07:21.601920,1.00274888,.0113644,47.6948,271.6514,221.6643,142.4598,0,U,37948,999,5305,0,-.162E-5,0
LUCH 5A (SDCM/PRN 140),2011-074B,2026-06-08T15:01:07.500864,1.00269774,.00023162,8.7313,73.9336,16.8767,198.4781,0,U,37951,999,5296,0,-.35E-6,0
BEIDOU-2 G5 (C05),2012-008A,2026-06-09T15:19:43.858848,1.00270348,.00093188,3.5539,69.7436,275.4975,201.3768,0,U,38091,999,5229,0,.74E-6,0
BEIDOU-2 M3 (C11),2012-018A,2026-06-08T14:20:11.344992,1.86230188,.00199662,55.7660,305.1650,274.7700,84.9929,0,U,38250,999,9578,0,-.57E-6,0
BEIDOU-2 M4 (C12),2012-018B,2026-06-09T14:29:07.108800,1.86229817,.00111465,55.6651,304.3456,277.0468,82.8157,0,U,38251,999,9580,0,-.6E-6,0
SES-5 (EGNOS/PRN 136),2012-036A,2026-06-09T08:13:38.561088,1.00271308,.0001915,0.0521,308.5687,132.4669,305.0823,0,U,38652,999,4437,0,.51E-6,0
BEIDOU-2 M6 (C14),2012-050B,2026-06-09T07:31:11.610048,1.86230901,.001385,56.5375,63.1548,356.2475,3.7665,0,U,38775,999,9316,0,-.47E-6,0
GSAT-10 (GAGAN/PRN 128),2012-051B,2026-06-09T12:01:18.827904,1.00271359,.0007916,0.0156,287.5564,162.1406,71.5404,0,U,38779,999,5002,0,-.148E-5,0
GPS BIIF-3  (PRN 24),2012-053A,2026-06-09T08:08:24.296640,2.00567341,.01798481,53.5846,143.9208,65.6483,296.2179,0,U,38833,999,9928,0,.103E-5,0
GSAT0103 (GALILEO-FM3),2012-055A,2026-06-08T16:14:35.993472,1.70475307,.00051217,55.8003,101.7793,302.9774,56.9469,0,U,38857,999,8486,0,.26E-6,0
BEIDOU-2 G6 (C02),2012-059A,2026-06-09T15:26:53.691072,1.00274084,.0010063,4.4011,73.6030,325.1017,175.0423,0,U,38953,999,4983,0,-.16E-5,0
LUCH 5B (SDCM/PRN 125),2012-061A,2026-06-09T16:06:40.001184,1.00273522,.00017895,10.4646,49.9541,136.7986,296.6675,0,U,38977,999,4953,0,-.125E-5,0
COSMOS 2485 (747),2013-019A,2026-06-07T01:19:59.278080,2.13103506,.00234642,65.4143,73.9444,234.9067,124.8959,0,U,39155,999,10206,0,-.9E-7,0
GPS BIIF-4  (PRN 27),2013-023A,2026-06-09T04:56:29.038560,2.00563489,.01415922,54.5104,269.2989,51.0120,310.2585,0,U,39166,999,9572,0,-.34E-6,0
IRNSS-1A,2013-034A,2026-05-22T20:37:38.469792,1.00280263,.00166187,35.6649,64.2334,185.3754,355.4646,0,U,39199,999,4711,0,.59E-6,0
GPS BIIF-5  (PRN 30),2014-008A,2026-06-09T04:58:46.170048,2.00559266,.00842391,53.6534,149.6452,231.1478,128.1054,0,U,39533,999,8952,0,.109E-5,0
ASTRA 5B (EGNOS/PRN 123),2014-011B,2026-06-09T08:18:45.569664,1.00270342,.00020357,0.0545,320.4335,105.7966,339.6794,0,U,39617,999,4458,0,.154E-5,0
COSMOS 2492 (754),2014-012A,2026-06-09T08:39:27.110016,2.13103521,.00104861,65.3026,314.2024,325.9791,33.9512,0,U,39620,999,9507,0,-.33E-6,0
IRNSS-1B,2014-017A,2026-06-03T19:07:33.328992,1.00272113,.0023143,28.9456,240.6342,186.5094,167.0601,0,U,39635,999,4465,0,.128E-5,0
LUCH 5V (SDCM/PRN 141),2014-023A,2026-06-09T15:30:00.891360,1.00267020,.00027927,5.1138,69.8261,34.2912,121.0659,0,U,39727,999,4428,0,-.251E-5,0
GPS BIIF-6  (PRN 06),2014-026A,2026-06-08T23:37:25.067424,2.00561560,.0038235,56.5024,331.8369,326.6943,33.0742,0,U,39741,999,8837,0,-.57E-6,0
COSMOS 2500 (755),2014-032A,2026-06-09T01:28:19.356960,2.13106127,.00070374,65.2374,313.9601,183.3514,176.6419,0,U,40001,999,9328,0,-.32E-6,0
GPS BIIF-7  (PRN 09),2014-045A,2026-06-09T01:49:25.626720,2.00557855,.00329614,55.3481,88.7881,118.3556,241.9707,0,U,40105,999,8591,0,0,0
GSAT0201 (GALILEO 5),2014-050A,2026-06-09T07:58:17.347008,1.85520027,.16733008,48.8841,273.7586,179.0833,181.3092,0,U,40128,999,7817,0,-.53E-6,0
GSAT0202 (GALILEO 6),2014-050B,2026-06-09T01:10:10.008480,1.85520610,.16746201,48.9012,272.8557,179.8073,180.3093,0,U,40129,999,8033,0,-.52E-6,0
IRNSS-1C,2014-061A,2026-06-08T20:24:34.856352,1.00270647,.00226452,6.4974,89.0865,1.4878,195.8228,0,U,40269,999,4260,0,-.145E-5,0
GPS BIIF-8  (PRN 03),2014-068A,2026-06-07T22:47:13.610112,2.00575658,.00668338,56.9813,31.3107,70.2374,290.5357,0,U,40294,999,8501,0,-.65E-6,0
COSMOS 2501 (702K),2014-075A,2026-06-09T07:45:34.785792,2.13101469,.00224736,63.6158,190.6443,212.2153,147.7161,0,U,40315,999,8968,0,.109E-5,0
GPS BIIF-9  (PRN 26),2015-013A,2026-06-08T14:04:05.839680,2.00551984,.0109392,53.1681,204.5335,40.1405,320.7391,0,U,40534,999,8165,0,.71E-6,0
GSAT0203 (GALILEO 7),2015-017A,2026-06-08T09:56:18.112128,1.70476076,.00020951,56.7896,341.8347,280.5229,79.4690,0,U,40544,999,6905,0,-.63E-6,0
GSAT0204 (GALILEO 8),2015-017B,2026-06-08T16:04:36.290208,1.70475757,.00018633,56.7974,341.8463,251.2225,108.7730,0,U,40545,999,3210,0,-.62E-6,0
